OSCAR 7 (AO-7)          
1 07530U 74089B   26060.50960281 -.00000024  00000+0  14258-3 0  9997
2 07530 101.9970  72.6114 0012041 338.0089 146.0338 12.53696240347023
PHASE 3B (AO-10)        
1 14129U 83058B   26057.64872215  .00000122  00000+0  00000+0 0  9999
2 14129  25.9363 238.1501 6050288  84.9862 337.2714  2.05871022293214
UOSAT 2 (UO-11)         
1 14781U 84021B   26060.48333935  .00001811  00000+0  19127-3 0  9991
2 14781  97.7932  27.3621 0007690 168.5941 191.5453 14.90470288241083
LUSAT (LO-19)           
1 20442U 90005G   26060.03922368  .00000169  00000+0  77114-4 0  9992
2 20442  98.8940  78.8212 0011979 158.5935 201.5752 14.34083664886893
EYESAT A (AO-27)        
1 22825U 93061C   26060.17614086  .00000122  00000+0  63505-4 0  9992
2 22825  98.7001 127.5792 0009303  61.8489 298.3632 14.30909702691554
ITAMSAT (IO-26)         
1 22826U 93061D   26060.18762103  .00000136  00000+0  68071-4 0  9996
2 22826  98.6949 127.4973 0009634  46.5481 313.6501 14.31333439691863
RADIO ROSTO (RS15)      
1 23439U 94085A   26060.44744652 -.00000025  00000+0  50239-3 0  9996
2 23439  64.8149 117.4643 0152374  23.5837 337.1979 11.27583699283756
JAS-2 (FO-29)           
1 24278U 96046B   26060.51419809 -.00000019  00000+0  16570-4 0  9992
2 24278  98.5394 284.0391 0350180  15.9708 345.2148 13.53268308458606
TECHSAT 1B (GO-32)      
1 25397U 98043D   26060.45126706  .00000108  00000+0  66779-4 0  9992
2 25397  99.0017  50.5226 0001821 132.1214 228.0119 14.24403395435998
ISS (ZARYA)             
1 25544U 98067A   26060.44612133  .00009769  00000+0  18913-3 0  9993
2 25544  51.6323 113.1104 0008284 145.6657 214.4868 15.48380101555053
PCSAT (NO-44)           
1 26931U 01043C   26060.45603038  .00000187  00000+0  10085-3 0  9994
2 26931  67.0510 162.9061 0007019 265.3260  94.7041 14.31907044275022
SAUDISAT 1C (SO-50)     
1 27607U 02058C   26060.45655289  .00001910  00000+0  24292-3 0  9997
2 27607  64.5510 102.2353 0075059 282.1563  77.1142 14.82743943248487
CUTE-1 (CO-55)          
1 27844U 03031E   26059.99311405  .00000385  00000+0  18585-3 0  9991
2 27844  98.6778  69.8999 0010391 135.3044 224.8974 14.24257525176272
CUBESAT XI-IV (CO-57)   
1 27848U 03031J   26060.48995895  .00000346  00000+0  17102-3 0  9993
2 27848  98.6807  70.1897 0010013 150.6547 209.5195 14.23554450176057
MOZHAETS 4 (RS22)       
1 27939U 03042A   26060.56555049  .00001307  00000+0  21066-3 0  9990
2 27939  98.3427 241.9009 0010221 248.3212 146.0060 14.73225149199709
CUBESAT XI-V            
1 28895U 05043F   26060.35655531  .00002445  00000+0  39486-3 0  9998
2 28895  98.2811 213.8242 0014273 183.4223 176.6888 14.72274458 85882
CUTE-1.7+APD II (CO-65) 
1 32785U 08021C   26060.48723546  .00008796  00000+0  57154-3 0  9993
2 32785  97.8184  39.8128 0010409  43.2272 316.9770 15.08226230968958
SEEDS II (CO-66)        
1 32791U 08021J   26060.47811639  .00023475  00000+0  84353-3 0  9992
2 32791  97.7502  53.5693 0002874  23.1073 337.0295 15.28650703970813
YUBILEINY (RS30)        
1 32953U 08025A   26060.49904412  .00000074  00000+0  46126-3 0  9996
2 32953  82.4988  62.4206 0019225 183.1097 176.9867 12.43175886806318
KKS-1 (KISEKI)          
1 33499U 09002H   26060.43468504  .00002073  00000+0  26322-3 0  9996
2 33499  98.1188 341.2046 0006474 283.5110  76.5381 14.82790654920227
SWISSCUBE               
1 35932U 09051B   26060.26609144  .00001467  00000+0  30090-3 0  9995
2 35932  98.4108 326.2594 0006495 178.2176 181.9049 14.62231629873388
BEESAT-1                
1 35933U 09051C   26060.28912142  .00001231  00000+0  25806-3 0  9991
2 35933  98.4037 326.1398 0004732 189.6799 170.4311 14.61509618873425
ITUPSAT1                
1 35935U 09051E   26060.18608492  .00001124  00000+0  24310-3 0  9992
2 35935  98.4126 325.3382 0006684 205.9421 154.1444 14.60246277872975
XIWANG-1 (HOPE-1)       
1 36122U 09072B   26060.47706266 -.00000188  00000+0 -37530-3 0  9993
2 36122 100.3891  16.0918 0007999 117.0716 243.1214 13.16434377778839
O/OREOS (USA 219)       
1 37224U 10062C   26060.15675855  .00002953  00000+0  28755-3 0  9991
2 37224  71.9729 324.9554 0016919 271.0216  88.9016 14.93224567100514
JUGNU                   
1 37839U 11058B   26060.51284566  .00000484  00000+0  11308-3 0  9997
2 37839  19.9599 242.5745 0018613 327.3699  56.1645 14.13736268743777
SRMSAT                  
1 37841U 11058D   26060.07253807  .00000449  00000+0  99838-4 0  9991
2 37841  19.9732 353.8578 0011897  94.9480   9.1184 14.11543719742524
STRAND-1                
1 39090U 13009E   26060.48782507  .00000453  00000+0  16699-3 0  9994
2 39090  98.3880 243.3837 0008559 185.7162 174.3928 14.37086242681596
ZACUBE-1 (TSHEPISOSAT)  
1 39417U 13066B   26060.45977726  .00006047  00000+0  47976-3 0  9993
2 39417  97.8179  22.2431 0041399 247.8949 111.7877 15.00219983664578
GOMX-1                  
1 39430U 13066Q   26060.51535347  .00001947  00000+0  29863-3 0  9993
2 39430  97.6578 267.7299 0130693  63.5240 297.9303 14.69059098654107
